{
  "type": "FeatureCollection",
  "features": [
    {
      "type": "Feature",
      "properties": {
        "norad_id": 29869,
        "name": "FENGYUN 1C DEB",
        "group": "fengyun-1c-debris",
        "lat": -23.308522176752906,
        "lon": -74.1218194977869,
        "alt_km": 715.5594859677112,
        "timestamp": "2025-12-17T13:48:37.826688+00:00",
        "meta_object_name": "FENGYUN 1C DEB",
        "meta_object_id": "1999-025FP",
        "meta_epoch": "2025-12-17T07:47:37.739040",
        "meta_mean_motion": 14.36896382,
        "meta_eccentricity": 0.00873751,
        "meta_inclination": 98.8736,
        "meta_ra_of_asc_node": 281.7604,
        "meta_arg_of_pericenter": 357.6044,
        "meta_mean_anomaly": 123.1815,
        "meta_ephemeris_type": 0,
        "meta_classification_type": "U",
        "meta_norad_cat_id": 29869,
        "meta_element_set_no": 999,
        "meta_rev_at_epoch": 98886,
        "meta_bstar": 0.00036087673,
        "meta_mean_motion_dot": 1.067e-05,
        "meta_mean_motion_ddot": 0,
        "tle_line1": "1 29869U 99025FP  25351.32474235  .00001067  00000+0  36088-3 0  9996",
        "tle_line2": "2 29869  98.8736 281.7604 0087375 357.6044 123.1815 14.36896382988864"
      },
      "geometry": {
        "type": "Point",
        "coordinates": [
          -74.1218194977869,
          -23.308522176752906
        ]
      }
    },
    {
      "type": "Feature",
      "properties": {
        "norad_id": 29870,
        "name": "FENGYUN 1C DEB",
        "group": "fengyun-1c-debris",
        "lat": -49.297199531703555,
        "lon": 132.38759116306616,
        "alt_km": 748.0736244370328,
        "timestamp": "2025-12-17T13:48:37.826698+00:00",
        "meta_object_name": "FENGYUN 1C DEB",
        "meta_object_id": "1999-025FQ",
        "meta_epoch": "2025-12-16T21:52:50.849760",
        "meta_mean_motion": 14.28981772,
        "meta_eccentricity": 0.01201045,
        "meta_inclination": 98.4604,
        "meta_ra_of_asc_node": 321.7072,
        "meta_arg_of_pericenter": 180.0959,
        "meta_mean_anomaly": 236.2461,
        "meta_ephemeris_type": 0,
        "meta_classification_type": "U",
        "meta_norad_cat_id": 29870,
        "meta_element_set_no": 999,
        "meta_rev_at_epoch": 98653,
        "meta_bstar": 4.758347e-05,
        "meta_mean_motion_dot": 8.7e-07,
        "meta_mean_motion_ddot": 0,
        "tle_line1": "1 29870U 99025FQ  25350.91169965  .00000087  00000+0  47583-4 0  9997",
        "tle_line2": "2 29870  98.4604 321.7072 0120104 180.0959 236.2461 14.28981772986535"
      },
      "geometry": {
        "type": "Point",
        "coordinates": [
          132.38759116306616,
          -49.297199531703555
        ]
      }
    },
    {
      "type": "Feature",
      "properties": {
        "norad_id": 29871,
        "name": "FENGYUN 1C DEB",
        "group": "fengyun-1c-debris",
        "lat": 55.74615562315892,
        "lon": -68.4615468517102,
        "alt_km": 710.4838835354576,
        "timestamp": "2025-12-17T13:48:37.826708+00:00",
        "meta_object_name": "FENGYUN 1C DEB",
        "meta_object_id": "1999-025FR",
        "meta_epoch": "2025-12-16T21:13:03.804384",
        "meta_mean_motion": 14.42663666,
        "meta_eccentricity": 0.00588882,
        "meta_inclination": 98.9727,
        "meta_ra_of_asc_node": 304.2273,
        "meta_arg_of_pericenter": 95.3478,
        "meta_mean_anomaly": 333.2907,
        "meta_ephemeris_type": 0,
        "meta_classification_type": "U",
        "meta_norad_cat_id": 29871,
        "meta_element_set_no": 999,
        "meta_rev_at_epoch": 98761,
        "meta_bstar": 0.00069573562,
        "meta_mean_motion_dot": 2.314e-05,
        "meta_mean_motion_ddot": 0,
        "tle_line1": "1 29871U 99025FR  25350.88407181  .00002314  00000+0  69574-3 0  9997",
        "tle_line2": "2 29871  98.9727 304.2273 0058888  95.3478 333.2907 14.42663666987617"
      },
      "geometry": {
        "type": "Point",
        "coordinates": [
          -68.4615468517102,
          55.74615562315892
        ]
      }
    },
    {
      "type": "Feature",
      "properties": {
        "norad_id": 29872,
        "name": "FENGYUN 1C DEB",
        "group": "fengyun-1c-debris",
        "lat": 12.769069877274418,
        "lon": -170.67476412801267,
        "alt_km": 873.356380829513,
        "timestamp": "2025-12-17T13:48:37.826719+00:00",
        "meta_object_name": "FENGYUN 1C DEB",
        "meta_object_id": "1999-025FS",
        "meta_epoch": "2025-12-16T23:39:59.050368",
        "meta_mean_motion": 14.38975691,
        "meta_eccentricity": 0.02353338,
        "meta_inclination": 98.3458,
        "meta_ra_of_asc_node": 6.8448,
        "meta_arg_of_pericenter": 300.7933,
        "meta_mean_anomaly": 57.028,
        "meta_ephemeris_type": 0,
        "meta_classification_type": "U",
        "meta_norad_cat_id": 29872,
        "meta_element_set_no": 999,
        "meta_rev_at_epoch": 98653,
        "meta_bstar": 0.00047922363,
        "meta_mean_motion_dot": 1.989e-05,
        "meta_mean_motion_ddot": 0,
        "tle_line1": "1 29872U 99025FS  25350.98610012  .00001989  00000+0  47922-3 0  9998",
        "tle_line2": "2 29872  98.3458   6.8448 0235333 300.7933  57.0280 14.38975691986537"
      },
      "geometry": {
        "type": "Point",
        "coordinates": [
          -170.67476412801267,
          12.769069877274418
        ]
      }
    },
    {
      "type": "Feature",
      "properties": {
        "norad_id": 29873,
        "name": "FENGYUN 1C DEB",
        "group": "fengyun-1c-debris",
        "lat": -75.77743007541577,
        "lon": -9.244207090017952,
        "alt_km": 887.934633921227,
        "timestamp": "2025-12-17T13:48:37.826729+00:00",
        "meta_object_name": "FENGYUN 1C DEB",
        "meta_object_id": "1999-025FT",
        "meta_epoch": "2025-12-17T04:33:57.967200",
        "meta_mean_motion": 13.98148324,
        "meta_eccentricity": 0.00925215,
        "meta_inclination": 99.4415,
        "meta_ra_of_asc_node": 211.3937,
        "meta_arg_of_pericenter": 186.7131,
        "meta_mean_anomaly": 293.8563,
        "meta_ephemeris_type": 0,
        "meta_classification_type": "U",
        "meta_norad_cat_id": 29873,
        "meta_element_set_no": 999,
        "meta_rev_at_epoch": 96377,
        "meta_bstar": 0.00010704034,
        "meta_mean_motion_dot": 1.11e-06,
        "meta_mean_motion_ddot": 0,
        "tle_line1": "1 29873U 99025FT  25351.19025425  .00000111  00000+0  10704-3 0  9995",
        "tle_line2": "2 29873  99.4415 211.3937 0092521 186.7131 293.8563 13.98148324963776"
      },
      "geometry": {
        "type": "Point",
        "coordinates": [
          -9.244207090017952,
          -75.77743007541577
        ]
      }
    },
    {
      "type": "Feature",
      "properties": {
        "norad_id": 29874,
        "name": "FENGYUN 1C DEB",
        "group": "fengyun-1c-debris",
        "lat": -68.95471440203136,
        "lon": -89.19980134141143,
        "alt_km": 751.4778577750021,
        "timestamp": "2025-12-17T13:48:37.826739+00:00",
        "meta_object_name": "FENGYUN 1C DEB",
        "meta_object_id": "1999-025FU",
        "meta_epoch": "2025-12-17T04:45:44.416800",
        "meta_mean_motion": 14.28877177,
        "meta_eccentricity": 0.01048146,
        "meta_inclination": 98.3797,
        "meta_ra_of_asc_node": 247.913,
        "meta_arg_of_pericenter": 338.0118,
        "meta_mean_anomaly": 174.0857,
        "meta_ephemeris_type": 0,
        "meta_classification_type": "U",
        "meta_norad_cat_id": 29874,
        "meta_element_set_no": 999,
        "meta_rev_at_epoch": 96911,
        "meta_bstar": 0.0023098811,
        "meta_mean_motion_dot": 6.146e-05,
        "meta_mean_motion_ddot": 0,
        "tle_line1": "1 29874U 99025FU  25351.19843075  .00006146  00000+0  23099-2 0  9999",
        "tle_line2": "2 29874  98.3797 247.9130 0104814 338.0118 174.0857 14.28877177969113"
      },
      "geometry": {
        "type": "Point",
        "coordinates": [
          -89.19980134141143,
          -68.95471440203136
        ]
      }
    },
    {
      "type": "Feature",
      "properties": {
        "norad_id": 29875,
        "name": "FENGYUN 1C DEB",
        "group": "fengyun-1c-debris",
        "lat": 65.38181180097523,
        "lon": 23.971252343032916,
        "alt_km": 745.5510134572914,
        "timestamp": "2025-12-17T13:48:37.826748+00:00",
        "meta_object_name": "FENGYUN 1C DEB",
        "meta_object_id": "1999-025FV",
        "meta_epoch": "2025-12-17T01:58:28.945344",
        "meta_mean_motion": 14.24879046,
        "meta_eccentricity": 0.00830206,
        "meta_inclination": 98.4047,
        "meta_ra_of_asc_node": 42.3224,
        "meta_arg_of_pericenter": 50.726,
        "meta_mean_anomaly": 7.5668,
        "meta_ephemeris_type": 0,
        "meta_classification_type": "U",
        "meta_norad_cat_id": 29875,
        "meta_element_set_no": 999,
        "meta_rev_at_epoch": 98384,
        "meta_bstar": 2.8436431e-05,
        "meta_mean_motion_dot": 2.8e-07,
        "meta_mean_motion_ddot": 0,
        "tle_line1": "1 29875U 99025FV  25351.08227946  .00000028  00000+0  28436-4 0  9996",
        "tle_line2": "2 29875  98.4047  42.3224 0083020  50.7260   7.5668 14.24879046983844"
      },
      "geometry": {
        "type": "Point",
        "coordinates": [
          23.971252343032916,
          65.38181180097523
        ]
      }
    }
  ]
}